CSS (TIANHE)            
1 48274U 21035A   24248.20219200  .00065891  00000+0  70344-3 0  9991
2 48274  41.4696 321.5439 0001922   1.4914 358.5931 15.62988281191451
